ONEWEB-0142             
1 47288U 20100AG  23336.02529460  .00000270  00000+0  71540-3 0  9995
2 47288  87.9004 175.2513 0001710  89.3207 270.8117 13.12444828142922
ONEWEB-0143             
1 47289U 20100AH  23335.59723208 -.00000280  00000+0 -81286-3 0  9994
2 47289  87.9008 175.3545 0001449  84.8511 275.2783 13.12443955142849
ONEWEB-0144             
1 47290U 20100AJ  23335.57022321  .00000061  00000+0  13374-3 0  9990
2 47290  87.9005 175.3440 0001749  98.0727 262.0600 13.12445671142761
ONEWEB-0145             
1 47291U 20100AK  23335.92283358  .00000213  00000+0  55597-3 0  9991
2 47291  87.9006 175.2974 0001557  91.4709 268.6598 13.12444033143005
ONEWEB-0146             
1 47292U 20100AL  23335.91805810 -.00000066  00000+0 -22004-3 0  9999
2 47292  87.8924 175.3056 0001212  67.3531 292.7725 13.12441671142913
ONEWEB-0147             
1 47293U 20100AM  23336.03718382 -.00000192  00000+0 -56779-3 0  9997
2 47293  87.9001 175.2584 0001356 102.1950 257.9331 13.12436553142827
ONEWEB-0115             
1 48042U 21025A   23335.87523964 -.00000028  00000+0 -11051-3 0  9990
2 48042  87.8980 144.9879 0001291  87.0371 273.0906 13.13469234131739
ONEWEB-0152             
1 48043U 21025B   23335.96409618 -.00000299  00000+0 -85438-3 0  9990
2 48043  87.8983 144.9592 0001400  96.2540 263.8749 13.13467898131711
